{"type": "FeatureCollection", "features": [ {"type": "Feature", "properties": {"norad_id": 66400, "name": "STARLINK-35667", "group": "last-30-days", "lat": 28.185270540547965, "lon": 73.83630898727156, "alt_km": 443.5429743108898, "timestamp": "2025-12-09T21:34:10.194136+00:00", "meta": {"OBJECT_NAME": "STARLINK-35667", "OBJECT_ID": "2025-257W", "EPOCH": "2025-12-09T16:00:01.999584", "MEAN_MOTION": 15.39527187, "ECCENTRICITY": 0.00012486, "INCLINATION": 53.1591, "RA_OF_ASC_NODE": 278.6181, "ARG_OF_PERICENTER": 86.3513, "MEAN_ANOMALY": 210.6025, "EPHEMERIS_TYPE": 0, "CLASSIFICATION_TYPE": "U", "NORAD_CAT_ID": 66400, "ELEMENT_SET_NO": 999, "REV_AT_EPOCH": 600, "BSTAR": 0.002670549, "MEAN_MOTION_DOT": 0.0010761, "MEAN_MOTION_DDOT": 0}, "tle": {"line1": "1 66400U 25257W   25343.66668981  .00107610  00000+0  26705-2 0  9990", "line2": "2 66400  53.1591 278.6181 0001248  86.3513 210.6025 15.39527187  6006"}}, "geometry": {"type": "Point", "coordinates": [73.83630898727156, 28.185270540547965]}}, {"type": "Feature", "properties": {"norad_id": 66401, "name": "STARLINK-35668", "group": "last-30-days", "lat": 26.838766944733184, "lon": 75.22664049788231, "alt_km": 443.60399912061166, "timestamp": "2025-12-09T21:34:10.194147+00:00", "meta": {"OBJECT_NAME": "STARLINK-35668", "OBJECT_ID": "2025-257X", "EPOCH": "2025-12-09T16:00:01.999584", "MEAN_MOTION": 15.3954948, "ECCENTRICITY": 0.00014089, "INCLINATION": 53.1592, "RA_OF_ASC_NODE": 278.6141, "ARG_OF_PERICENTER": 92.4494, "MEAN_ANOMALY": 206.315, "EPHEMERIS_TYPE": 0, "CLASSIFICATION_TYPE": "U", "NORAD_CAT_ID": 66401, "ELEMENT_SET_NO": 999, "REV_AT_EPOCH": 600, "BSTAR": 0.0021708017, "MEAN_MOTION_DOT": 0.00087227, "MEAN_MOTION_DDOT": 0}, "tle": {"line1": "1 66401U 25257X   25343.66668981  .00087227  00000+0  21708-2 0  9990", "line2": "2 66401  53.1592 278.6141 0001408  92.4494 206.3150 15.39549480  6009"}}, "geometry": {"type": "Point", "coordinates": [75.22664049788231, 26.838766944733184]}}, {"type": "Feature", "properties": {"norad_id": 66402, "name": "STARLINK-35644", "group": "last-30-days", "lat": 43.94315218970502, "lon": 51.304741220315215, "alt_km": 440.70740913255577, "timestamp": "2025-12-09T21:34:10.194157+00:00", "meta": {"OBJECT_NAME": "STARLINK-35644", "OBJECT_ID": "2025-257Y", "EPOCH": "2025-12-09T16:00:01.999584", "MEAN_MOTION": 15.39551001, "ECCENTRICITY": 0.00012183, "INCLINATION": 53.1594, "RA_OF_ASC_NODE": 278.6656, "ARG_OF_PERICENTER": 96.1432, "MEAN_ANOMALY": 176.863, "EPHEMERIS_TYPE": 0, "CLASSIFICATION_TYPE": "U", "NORAD_CAT_ID": 66402, "ELEMENT_SET_NO": 999, "REV_AT_EPOCH": 600, "BSTAR": 0.0022625321, "MEAN_MOTION_DOT": 0.00090979, "MEAN_MOTION_DDOT": 0}, "tle": {"line1": "1 66402U 25257Y   25343.66668981  .00090979  00000+0  22625-2 0  9998", "line2": "2 66402  53.1594 278.6656 0001218  96.1432 176.8630 15.39551001  6001"}}, "geometry": {"type": "Point", "coordinates": [51.304741220315215, 43.94315218970502]}}, {"type": "Feature", "properties": {"norad_id": 66403, "name": "STARLINK-35602", "group": "last-30-days", "lat": 8.331467664408008, "lon": 91.16870421332209, "alt_km": 446.7293318282882, "timestamp": "2025-12-09T21:34:10.194168+00:00", "meta": {"OBJECT_NAME": "STARLINK-35602", "OBJECT_ID": "2025-257Z", "EPOCH": "2025-12-09T16:00:01.999584", "MEAN_MOTION": 15.3955104, "ECCENTRICITY": 0.00011674, "INCLINATION": 53.1586, "RA_OF_ASC_NODE": 278.566, "ARG_OF_PERICENTER": 102.4875, "MEAN_ANOMALY": 220.1738, "EPHEMERIS_TYPE": 0, "CLASSIFICATION_TYPE": "U", "NORAD_CAT_ID": 66403, "ELEMENT_SET_NO": 999, "REV_AT_EPOCH": 600, "BSTAR": 0.0024650141, "MEAN_MOTION_DOT": 0.00099266, "MEAN_MOTION_DDOT": 0}, "tle": {"line1": "1 66403U 25257Z   25343.66668981  .00099266  00000+0  24650-2 0  9997", "line2": "2 66403  53.1586 278.5660 0001167 102.4875 220.1738 15.39551040  6007"}}, "geometry": {"type": "Point", "coordinates": [91.16870421332209, 8.331467664408008]}}, {"type": "Feature", "properties": {"norad_id": 66404, "name": "STARLINK-35691", "group": "last-30-days", "lat": 6.872353244253744, "lon": 92.28385026281434, "alt_km": 447.02051805710016, "timestamp": "2025-12-09T21:34:10.194178+00:00", "meta": {"OBJECT_NAME": "STARLINK-35691", "OBJECT_ID": "2025-257AA", "EPOCH": "2025-12-09T16:00:01.999584", "MEAN_MOTION": 15.39545706, "ECCENTRICITY": 0.00010723, "INCLINATION": 53.1585, "RA_OF_ASC_NODE": 278.562, "ARG_OF_PERICENTER": 99.292, "MEAN_ANOMALY": 225.2036, "EPHEMERIS_TYPE": 0, "CLASSIFICATION_TYPE": "U", "NORAD_CAT_ID": 66404, "ELEMENT_SET_NO": 999, "REV_AT_EPOCH": 600, "BSTAR": 0.0028382032, "MEAN_MOTION_DOT": 0.00114566, "MEAN_MOTION_DDOT": 0}, "tle": {"line1": "1 66404U 25257AA  25343.66668981  .00114566  00000+0  28382-2 0  9995", "line2": "2 66404  53.1585 278.5620 0001072  99.2920 225.2036 15.39545706  6001"}}, "geometry": {"type": "Point", "coordinates": [92.28385026281434, 6.872353244253744]}}, {"type": "Feature", "properties": {"norad_id": 66405, "name": "STARLINK-35683", "group": "last-30-days", "lat": -13.66646573224547, "lon": 107.91989103900879, "alt_km": 448.76907997831404, "timestamp": "2025-12-09T21:34:10.194190+00:00", "meta": {"OBJECT_NAME": "STARLINK-35683", "OBJECT_ID": "2025-257AB", "EPOCH": "2025-12-09T16:00:01.999584", "MEAN_MOTION": 15.40571857, "ECCENTRICITY": 0.00015573, "INCLINATION": 53.1588, "RA_OF_ASC_NODE": 278.5106, "ARG_OF_PERICENTER": 116.4894, "MEAN_ANOMALY": 233.2167, "EPHEMERIS_TYPE": 0, "CLASSIFICATION_TYPE": "U", "NORAD_CAT_ID": 66405, "ELEMENT_SET_NO": 999, "REV_AT_EPOCH": 584, "BSTAR": -0.035168116, "MEAN_MOTION_DOT": -0.01308126, "MEAN_MOTION_DDOT": 0}, "tle": {"line1": "1 66405U 25257AB  25343.66668981 -.01308126  00000+0 -35168-1 0  9995", "line2": "2 66405  53.1588 278.5106 0001557 116.4894 233.2167 15.40571857  5847"}}, "geometry": {"type": "Point", "coordinates": [107.91989103900879, -13.66646573224547]}}, {"type": "Feature", "properties": {"norad_id": 66406, "name": "STARLINK-34840", "group": "last-30-days", "lat": -43.42274285220147, "lon": 142.53415577299793, "alt_km": 423.17285926880595, "timestamp": "2025-12-09T21:34:10.194201+00:00", "meta": {"OBJECT_NAME": "STARLINK-34840", "OBJECT_ID": "2025-257AC", "EPOCH": "2025-12-09T11:15:10.778400", "MEAN_MOTION": 15.49355554, "ECCENTRICITY": 0.00012592, "INCLINATION": 53.158, "RA_OF_ASC_NODE": 279.3888, "ARG_OF_PERICENTER": 122.2411, "MEAN_ANOMALY": 237.872, "EPHEMERIS_TYPE": 0, "CLASSIFICATION_TYPE": "U", "NORAD_CAT_ID": 66406, "ELEMENT_SET_NO": 999, "REV_AT_EPOCH": 581, "BSTAR": 0.0022382017, "MEAN_MOTION_DOT": 0.00126269, "MEAN_MOTION_DDOT": 0}, "tle": {"line1": "1 66406U 25257AC  25343.46887475  .00126269  00000+0  22382-2 0  9993", "line2": "2 66406  53.1580 279.3888 0001259 122.2411 237.8720 15.49355554  5810"}}, "geometry": {"type": "Point", "coordinates": [142.53415577299793, -43.42274285220147]}}, {"type": "Feature", "properties": {"norad_id": 66407, "name": "STARLINK-35686", "group": "last-30-days", "lat": -30.021677771784358, "lon": 123.04766435911628, "alt_km": 441.8847060556336, "timestamp": "2025-12-09T21:34:10.194214+00:00", "meta": {"OBJECT_NAME": "STARLINK-35686", "OBJECT_ID": "2025-257AD", "EPOCH": "2025-12-09T16:00:01.999584", "MEAN_MOTION": 15.43890994, "ECCENTRICITY": 9.952e-05, "INCLINATION": 53.1582, "RA_OF_ASC_NODE": 278.4732, "ARG_OF_PERICENTER": 105.524, "MEAN_ANOMALY": 263.1126, "EPHEMERIS_TYPE": 0, "CLASSIFICATION_TYPE": "U", "NORAD_CAT_ID": 66407, "ELEMENT_SET_NO": 999, "REV_AT_EPOCH": 600, "BSTAR": -0.048984822, "MEAN_MOTION_DOT": -0.02013194, "MEAN_MOTION_DDOT": 0}, "tle": {"line1": "1 66407U 25257AD  25343.66668981 -.02013194  00000+0 -48985-1 0  9997", "line2": "2 66407  53.1582 278.4732 0000995 105.5240 263.1126 15.43890994  6001"}}, "geometry": {"type": "Point", "coordinates": [123.04766435911628, -30.021677771784358]}}, {"type": "Feature", "properties": {"norad_id": 66408, "name": "STARLINK-35679", "group": "last-30-days", "lat": -42.39446066759531, "lon": 140.5321253878538, "alt_km": 423.50407974692735, "timestamp": "2025-12-09T21:34:10.194224+00:00", "meta": {"OBJECT_NAME": "STARLINK-35679", "OBJECT_ID": "2025-257AE", "EPOCH": "2025-12-09T05:04:06.822048", "MEAN_MOTION": 15.49344451, "ECCENTRICITY": 0.0001457, "INCLINATION": 53.1586, "RA_OF_ASC_NODE": 280.6256, "ARG_OF_PERICENTER": 79.4108, "MEAN_ANOMALY": 280.7065, "EPHEMERIS_TYPE": 0, "CLASSIFICATION_TYPE": "U", "NORAD_CAT_ID": 66408, "ELEMENT_SET_NO": 999, "REV_AT_EPOCH": 583, "BSTAR": 0.0022741, "MEAN_MOTION_DOT": 0.00128284, "MEAN_MOTION_DDOT": 0}, "tle": {"line1": "1 66408U 25257AE  25343.21119007  .00128284  00000+0  22741-2 0  9995", "line2": "2 66408  53.1586 280.6256 0001457  79.4108 280.7065 15.49344451  5833"}}, "geometry": {"type": "Point", "coordinates": [140.5321253878538, -42.39446066759531]}}, {"type": "Feature", "properties": {"norad_id": 66409, "name": "CHUTIAN-2 A", "group": "last-30-days", "lat": 12.37522204547666, "lon": 46.878646386804725, "alt_km": 736.6538490465009, "timestamp": "2025-12-09T21:34:10.194235+00:00", "meta": {"OBJECT_NAME": "CHUTIAN-2 A", "OBJECT_ID": "2025-256A", "EPOCH": "2025-12-09T14:53:13.010208", "MEAN_MOTION": 14.49935752, "ECCENTRICITY": 0.00135578, "INCLINATION": 98.277, "RA_OF_ASC_NODE": 48.4355, "ARG_OF_PERICENTER": 187.1977, "MEAN_ANOMALY": 172.9025, "EPHEMERIS_TYPE": 0, "CLASSIFICATION_TYPE": "U", "NORAD_CAT_ID": 66409, "ELEMENT_SET_NO": 999, "REV_AT_EPOCH": 442, "BSTAR": 0.00043679195, "MEAN_MOTION_DOT": 1.647e-05, "MEAN_MOTION_DDOT": 0}, "tle": {"line1": "1 66409U 25256A   25343.62028947  .00001647  00000+0  43679-3 0  9999", "line2": "2 66409  98.2770  48.4355 0013557 187.1977 172.9025 14.49935752  4425"}}, "geometry": {"type": "Point", "coordinates": [46.878646386804725, 12.37522204547666]}}]}